FLOCK 4V-18             
1 46597U 20061BG  22047.48189011  .00003631  00000+0  18156-3 0  9993
2 46597  97.4182 121.4696 0007010 178.8236 181.3015 15.18045261 75460
FLOCK 4V-19             
1 46609U 20061BH  22047.18818364  .00007074  00000+0  35063-3 0  9995
2 46609  97.4067 120.7862 0003911 153.9009 206.2423 15.18040587 74983
FLOCK 4V-20             
1 46612U 20061BJ  22047.18332050  .00004534  00000+0  22558-3 0  9995
2 46612  97.4169 121.0142 0007237 185.3700 174.7458 15.18090462 74475
FLOCK 4V-22             
1 46735U 20061BL  22046.74353924  .00009586  00000+0  47452-3 0  9997
2 46735  97.4004 119.8702 0005200 180.7564 179.3642 15.17986647 73250
FLOCK 4V-23             
1 46737U 20061BM  22046.77338979  .00006081  00000+0  30389-3 0  9993
2 46737  97.4081 120.3471 0004976 155.4412 204.7059 15.17811733 73198
FLOCK 4V-24             
1 46738U 20061BN  22047.15859496  .00006861  00000+0  34095-3 0  9993
2 46738  97.4176 121.1232 0005484 193.6707 166.4367 15.17958136 72817
FLOCK 4V-25             
1 46812U 20061BP  22046.92873145  .00005350  00000+0  26693-3 0  9994
2 46812  97.4090 120.5792 0005930 152.2757 207.8786 15.17917500 72434
FLOCK 4E'-1             
1 46813U 20077A   22047.47452667  .00003431  00000+0  16596-3 0  9994
2 46813  97.4381 111.9345 0013323 114.8616 245.4005 15.19193274 72099
FLOCK 4E'-7             
1 46814U 20077B   22047.16490039  .00003239  00000+0  15722-3 0  9992
2 46814  97.4385 111.7470 0014258 112.7266 247.5477 15.19105949 72051
FLOCK 4E'-9             
1 46815U 20077C   22047.48972273  .00002278  00000+0  11261-3 0  9999
2 46815  97.4351 112.0039 0013492 108.3556 251.9147 15.18772228 72111
FLOCK 4E'-8             
1 46816U 20077D   22047.45612369  .00004131  00000+0  19964-3 0  9992
2 46816  97.4405 112.3816 0011719 103.0776 257.1767 15.19123560 72110
FLOCK 4E'-5             
1 46817U 20077E   22047.47253966  .00009076  00000+0  42999-3 0  9996
2 46817  97.4406 112.6669 0015733  97.7883 262.5139 15.19434851 72132
FLOCK 4E'-3             
1 46819U 20077G   22046.91677036  .00003413  00000+0  16534-3 0  9999
2 46819  97.4385 112.0363 0016643  93.7871 266.5267 15.19101064 72053
FLOCK 4E'-2             
1 46820U 20077H   22047.46948323  .00006067  00000+0  29222-3 0  9998
2 46820  97.4432 112.9696 0015344  83.7397 276.5585 15.19009674 72143
FLOCK 4E'-4             
1 46821U 20077J   22047.49308336  .00003360  00000+0  16207-3 0  9998
2 46821  97.4396 112.8555 0015900  80.8141 279.4892 15.19275329 72111
FLOCK 4E'-6             
1 46822U 20077K   22046.92645470  .00004433  00000+0  21497-3 0  9998
2 46822  97.4350 111.7508 0013471  89.3983 270.8800 15.18945409 72056
FLOCK 4V-26             
1 46825U 20061BQ  22047.17158764  .00009738  00000+0  48146-3 0  9990
2 46825  97.4187 121.0920 0004724 200.6411 159.4657 15.18026962 72005
FLOCK 4S-22             
1 47452U 21006AR  22047.39383045  .00006895  00000+0  38180-3 0  9991
2 47452  97.4619 109.0902 0010572 343.2372  16.8509 15.14095024 58946
FLOCK 4S-21             
1 47456U 21006AV  22046.86646425  .00002279  00000+0  12906-3 0  9990
2 47456  97.4631 108.6111 0010482 345.3648  14.7279 15.13990463 58862
FLOCK 4S-11             
1 47462U 21006BB  22046.84423084  .00002708  00000+0  15906-3 0  9999
2 47462  97.4586 107.6824 0008483  10.7466 349.3945 15.12516137 58810
FLOCK 4S-33             
1 47469U 21006BJ  22047.42794120  .00006568  00000+0  36564-3 0  9994
2 47469  97.4587 108.5737 0007280   6.4391 353.6932 15.13947249 58923
FLOCK 4S-12             
1 47471U 21006BL  22046.89477358  .00003175  00000+0  17900-3 0  9992
2 47471  97.4619 108.2263 0007954   8.6184 351.5183 15.13876694 58846
FLOCK 4S-13             
1 47472U 21006BM  22046.74217085  .00002306  00000+0  13074-3 0  9999
2 47472  97.4643 108.2452 0008163   7.3172 352.8178 15.13946419 58829
FLOCK 4S-35             
1 47473U 21006BN  22047.14430652  .00002071  00000+0  11787-3 0  9990
2 47473  97.4630 108.5765 0007496   3.0414 357.0862 15.13916336 58884
FLOCK 4S-8              
1 47474U 21006BP  22047.41518603  .00002030  00000+0  11684-3 0  9995
2 47474  97.4561 108.4594 0008336   4.5887 355.5419 15.13525962 58928
FLOCK 4S-31             
1 47475U 21006BQ  22046.74250884  .00002233  00000+0  12657-3 0  9991
2 47475  97.4568 107.8638 0007565   5.4796 354.6517 15.13984708 58825
FLOCK 4S-34             
1 47477U 21006BS  22046.88293045  .00005943  00000+0  33050-3 0  9995
2 47477  97.4628 108.2967 0007351   5.6102 354.5211 15.14020714 58841
FLOCK 4S-9              
1 47478U 21006BT  22047.14886718  .00002121  00000+0  12055-3 0  9998
2 47478  97.4570 108.2580 0008182   7.5248 352.6105 15.13940812 58888
FLOCK 4S-32             
1 47479U 21006BU  22046.75291942  .00002358  00000+0  13352-3 0  9997
2 47479  97.4575 107.8890 0007482   7.7193 352.4153 15.13976747 58827
FLOCK 4S-39             
1 47490U 21006CF  22046.71473678  .00004738  00000+0  26435-3 0  9994
2 47490  97.4663 108.5249 0009804 350.7323   9.3726 15.13996238 58832
FLOCK 4S-4              
1 47491U 21006CG  22047.43830017  .00004269  00000+0  23795-3 0  9994
2 47491  97.4545 108.6525 0009469 346.2133  13.8838 15.14084072 58947
FLOCK 4S-17             
1 47492U 21006CH  22046.90693819  .00006530  00000+0  36272-3 0  9990
2 47492  97.4673 108.7461 0009885 349.0686  11.0329 15.14009178 58866
FLOCK 4S-3              
1 47494U 21006CK  22047.47397456  .00002361  00000+0  13550-3 0  9995
2 47494  97.4555 108.6555 0009659 344.3689  15.7243 15.13476990 58944
FLOCK 4S-27             
1 47495U 21006CL  22046.90359395  .00005526  00000+0  30765-3 0  9996
2 47495  97.4556 108.1811 0010131 348.5703  11.5298 15.13996217 58860
FLOCK 4S-18             
1 47496U 21006CM  22046.90193063  .00004465  00000+0  24931-3 0  9994
2 47496  97.4658 108.7035 0010017 348.8044  11.2963 15.13998285 58865
FLOCK 4S-26             
1 47497U 21006CN  22046.88690586  .00008100  00000+0  44285-3 0  9998
2 47497  97.4557 108.2198 0009851 345.8774  14.2181 15.14500468 58868
FLOCK 4S-2              
1 47498U 21006CP  22046.89298696  .00002348  00000+0  13332-3 0  9993
2 47498  97.4562 108.2185 0009723 344.6847  15.4088 15.13866720 58861
FLOCK 4S-40             
1 47499U 21006CQ  22046.89428169  .00004530  00000+0  25411-3 0  9990
2 47499  97.4659 108.6995 0010230 348.8865  11.2139 15.13821322 58863
FLOCK 4S-19             
1 47500U 21006CR  22046.88801071  .00002080  00000+0  11830-3 0  9997
2 47500  97.4656 108.7064 0010127 346.4906  13.6053 15.13933235 58864
FLOCK 4S-28             
1 47514U 21006DE  22047.11321603  .00006572  00000+0  36490-3 0  9996
2 47514  97.4546 108.1868 0008060 359.5305   0.5917 15.14033571 59842
FLOCK 4S-5              
1 47515U 21006DF  22046.71426850  .00003998  00000+0  22376-3 0  9999
2 47515  97.4543 107.7706 0008498   2.4135 357.7136 15.13982130 58826
FLOCK 4S-16             
1 47516U 21006DG  22046.65655096  .00005753  00000+0  32046-3 0  9995
2 47516  97.4660 108.2948 0008264   4.0172 356.1125 15.13975278 59772
FLOCK 4S-6              
1 47518U 21006DJ  22046.72528054  .00006643  00000+0  36866-3 0  9991
2 47518  97.4553 107.8121 0008333   4.3701 355.7602 15.14047232 59799
FLOCK 4S-29             
1 47520U 21006DL  22047.12008088  .00004828  00000+0  26854-3 0  9998
2 47520  97.4555 108.2345 0007727   2.2285 357.8980 15.14110531 58881
FLOCK 4S-15             
1 47521U 21006DM  22047.43635717  .00003000  00000+0  17000-3 0  9992
2 47521  97.4654 109.0502 0008339   3.2009 356.9274 15.13732328 59904
FLOCK 4S-37             
1 47522U 21006DN  22047.12548115  .00004138  00000+0  23140-3 0  9999
2 47522  97.4643 108.6723 0007937   3.8407 356.2885 15.13998835 59856
FLOCK 4S-10             
1 47523U 21006DP  22047.42545872  .00002483  00000+0  14041-3 0  9991
2 47523  97.4580 108.5507 0008128   7.2601 352.8747 15.13973746 58923
FLOCK 4S-7              
1 47527U 21006DT  22046.73407055  .00006185  00000+0  34376-3 0  9994
2 47527  97.4552 107.8083 0008249   6.0409 354.0921 15.14022737 59783
FLOCK 4S-14             
1 47528U 21006DU  22046.73635753  .00002160  00000+0  12266-3 0  9996
2 47528  97.4649 108.2864 0008200   6.4070 353.7265 15.13962108 59789
FLOCK 4S-36             
1 47530U 21006DW  22046.60670131  .00006320  00000+0  35103-3 0  9991
2 47530  97.4639 108.1078 0007642   5.4853 354.6461 15.14038783 59764
FLOCK 4S-24             
1 47539U 21006DZ  22047.46626363  .00002404  00000+0  13595-3 0  9993
2 47539  97.4587 108.9751 0010537 343.0098  17.0779 15.13974908 58959
FLOCK 4S-20             
1 47540U 21006EA  22047.40319690  .00002778  00000+0  15633-3 0  9990
2 47540  97.4640 109.1840 0010222 343.8891  16.2014 15.14031437 58015
FLOCK 4S-25             
1 47542U 21006EC  22047.14834856  .00003288  00000+0  18470-3 0  9998
2 47542  97.4570 108.5340 0010247 345.9775  14.1171 15.13960331 57976
FLOCK 4S-1              
1 47543U 21006ED  22046.87908929  .00002138  00000+0  12132-3 0  9993
2 47543  97.4567 108.2729 0009727 343.2773  16.8136 15.13982160 57931
FLOCK 4S-30             
1 47544U 21006EE  22046.72963477  .00006406  00000+0  35562-3 0  9991
2 47544  97.4563 107.8724 0007833   4.0500 356.0793 15.14054057 59783
FLOCK 4S-23             
1 47545U 21006EF  22046.72773095  .00006828  00000+0  37904-3 0  9997
2 47545  97.4601 108.3299 0010588 345.0897  15.0021 15.14009972 59814
FLOCK 4S-42             
1 47612U 21006EQ  22047.18189382  .00004399  00000+0  24552-3 0  9999
2 47612  97.4623 108.7759 0010826 357.2301   2.8869 15.14009137 58904
FLOCK 4S-48             
1 47617U 21006EJ  22047.42447688  .00002502  00000+0  14125-3 0  9996
2 47617  97.4611 109.1528 0010893 334.6862  25.3834 15.14009359 59921
FLOCK 4S-46             
1 47684U 21006EK  22047.17233413  .00006307  00000+0  35111-3 0  9996
2 47684  97.4612 108.8534 0007987  14.6488 345.4974 15.13957366 58916
FLOCK 4S-47             
1 47685U 21006EL  22047.43914854  .00006548  00000+0  36300-3 0  9999
2 47685  97.4591 108.6077 0006606   7.1925 352.9400 15.14100106 58924
